*******************************************************************************
JPL/HORIZONS                2060 Chiron (1977 UB)          2023-Sep-04 11:15:45
Rec #:    2060 (+COV) Soln.date: 2023-Aug-24_10:29:02   # obs: 3946 (1990-2023)
 
IAU76/J2000 helio. ecliptic osc. elements (au, days, deg., period=Julian yrs):
 
  EPOCH=  2460188.5 ! 2023-Sep-01.00 (TDB)         Residual RMS= .20646
   EC= .3763536766856216   QR= 8.552078633131984   TP= 2468602.1410606555
   OM= 209.3080317470092   W=  339.3641100580242   IN= 6.91670262047946
   A= 13.71302662009106    MA= 196.6992889854017   ADIST= 18.87397460705013
   PER= 50.78181           N= .019409042           ANGMOM= .059017704
   DAN= 8.704800000000001  DDN= 18.17043           L= 188.8097935
   B= -2.4324534           MOID= 7.55613995        TP= 2046-Sep-13.6410606555
 
Asteroid physical parameters (km, seconds, rotational period in hours):
   GM= n.a.                RAD= 83.                ROTPER= 5.918
   H= 5.64                 G= .150                 B-V= .704
                           ALBEDO= .150            STYP= Cb

ASTEROID comments: 
1: soln ref.= JPL#152, OCC=0
2: source=ORB
*******************************************************************************


*******************************************************************************
Ephemeris / API_USER Mon Sep  4 11:15:45 2023 Pasadena, USA      / Horizons
*******************************************************************************
Target body name: 2060 Chiron (1977 UB)           {source: JPL#152}
Center body name: Solar System Barycenter (0)     {source: DE441}
Center-site name: BODY CENTER
*******************************************************************************
Start time      : A.D. 2023-Aug-12 00:00:00.0000 TDB
Stop  time      : A.D. 2023-Aug-13 00:00:00.0000 TDB
Step-size       : 2880 minutes
*******************************************************************************
Center geodetic : 0.0, 0.0, 0.0                   {E-lon(deg),Lat(deg),Alt(km)}
Center cylindric: 0.0, 0.0, 0.0                   {E-lon(deg),Dxy(km),Dz(km)}
Center radii    : (undefined)
Small perturbers: Yes                             {source: SB441-N16}
Output units    : KM-S
Calendar mode   : Mixed Julian/Gregorian
Output type     : GEOMETRIC cartesian states
Output format   : 2 (position and velocity)
Reference frame : Ecliptic of J2000.0
*******************************************************************************
Initial IAU76/J2000 heliocentric ecliptic osculating elements (au, days, deg.):
  EPOCH=  2460188.5 ! 2023-Sep-01.00 (TDB)         Residual RMS= .20646        
   EC= .3763536766856216   QR= 8.552078633131984   TP= 2468602.1410606555      
   OM= 209.3080317470092   W=  339.3641100580242   IN= 6.91670262047946        
  Equivalent ICRF heliocentric cartesian coordinates (au, au/d):
   X= 1.793630703953136E+01  Y= 4.825315619139019E+00  Z= 2.622216318233380E+00
  VX=-1.159621225278117E-03 VY= 2.822393659942841E-03 VZ= 8.127716567632774E-04
Asteroid physical parameters (km, seconds, rotational period in hours):        
   GM= n.a.                RAD= 83.                ROTPER= 5.918               
   H= 5.64                 G= .150                 B-V= .704                   
                           ALBEDO= .150            STYP= Cb                    
*******************************************************************************
JDTDB
   X     Y     Z
   VX    VY    VZ
*******************************************************************************
$$SOE
2460168.500000000 = A.D. 2023-Aug-12 00:00:00.0000 TDB 
 X = 2.685397214881927E+09 Y = 8.093357158819015E+08 Z = 7.392917422153497E+07
 VX=-1.973640495800877E+00 VY= 5.037877159607208E+00 VZ=-6.519890220639366E-01
$$EOE
*******************************************************************************
 
TIME

  Barycentric Dynamical Time ("TDB" or T_eph) output was requested. This
continuous coordinate time is equivalent to the relativistic proper time
of a clock at rest in a reference frame co-moving with the solar system
barycenter but outside the system's gravity well. It is the independent
variable in the solar system relativistic equations of motion.

  TDB runs at a uniform rate of one SI second per second and is independent
of irregularities in Earth's rotation.
 
CALENDAR SYSTEM

  Mixed calendar mode was active such that calendar dates after AD 1582-Oct-15
(if any) are in the modern Gregorian system. Dates prior to 1582-Oct-5 (if any)
are in the Julian calendar system, which is automatically extended for dates
prior to its adoption on 45-Jan-1 BC.  The Julian calendar is useful for
matching historical dates. The Gregorian calendar more accurately corresponds
to the Earth's orbital motion and seasons. A "Gregorian-only" calendar mode is
available if such physical events are the primary interest.

REFERENCE FRAME AND COORDINATES

  Ecliptic at the standard reference epoch

    Reference epoch: J2000.0
    X-Y plane: adopted Earth orbital plane at the reference epoch
               Note: IAU76 obliquity of 84381.448 arcseconds wrt ICRF X-Y plane
    X-axis   : ICRF
    Z-axis   : perpendicular to the X-Y plane in the directional (+ or -) sense
               of Earth's north pole at the reference epoch.

  Symbol meaning:

    JDTDB    Julian Day Number, Barycentric Dynamical Time
      X      X-component of position vector (km)
      Y      Y-component of position vector (km)
      Z      Z-component of position vector (km)
      VX     X-component of velocity vector (km/sec)                           
      VY     Y-component of velocity vector (km/sec)                           
      VZ     Z-component of velocity vector (km/sec)                           

ABERRATIONS AND CORRECTIONS

 Geometric state vectors have NO corrections or aberrations applied.

Computations by ...

    Solar System Dynamics Group, Horizons On-Line Ephemeris System
    4800 Oak Grove Drive, Jet Propulsion Laboratory
    Pasadena, CA  91109   USA

    General site: https://ssd.jpl.nasa.gov/
    Mailing list: https://ssd.jpl.nasa.gov/email_list.html
    System news : https://ssd.jpl.nasa.gov/horizons/news.html
    User Guide  : https://ssd.jpl.nasa.gov/horizons/manual.html
    Connect     : browser        https://ssd.jpl.nasa.gov/horizons/app.html#/x
                  API            https://ssd-api.jpl.nasa.gov/doc/horizons.html
                  command-line   telnet ssd.jpl.nasa.gov 6775
                  e-mail/batch   https://ssd.jpl.nasa.gov/ftp/ssd/hrzn_batch.txt
                  scripts        https://ssd.jpl.nasa.gov/ftp/ssd/SCRIPTS
    Author      : Jon.D.Giorgini@jpl.nasa.gov
*******************************************************************************
